AMC-15                  
1 28446U 04041A   26065.56076233 -.00000093  00000+0  00000+0 0  9995
2 28446   0.0507 300.4027 0002552  30.0695 290.6175  1.00272387 78275
SL-12 R/B(2)            
1 28466U 04043D   26065.12128037 -.00000132  00000+0  00000+0 0  9995
2 28466  13.1170  17.2184 0007010 167.8546 185.1420  1.00162986 78075
NSS-10                  
1 28526U 05003A   26065.78809001 -.00000254  00000+0  00000+0 0  9993
2 28526   6.1934  71.6906 0003238 269.4572  69.6207  1.00272071 52128
INMARSAT 4-F1           
1 28628U 05009A   26065.75948987  .00000031  00000+0  00000+0 0  9998
2 28628   5.0305  42.7326 0002864 330.9087 242.3633  1.00272777 76644
SL-12 R/B(2)            
1 28634U 05010F   26065.54474873  .00000011  00000+0  00000+0 0  9990
2 28634  13.0163  19.1663 0023310 266.5570 137.6257  1.00213537 76674
DIRECTV 8               
1 28659U 05019A   26065.55798898 -.00000003  00000+0  00000+0 0  9995
2 28659   0.0161 113.6976 0003319 247.1626 245.2280  1.00272136 76049
GALAXY 28 (G-28)        
1 28702U 05022A   26065.43354281 -.00000204  00000+0  00000+0 0  9992
2 28702   3.0333  80.2221 0002293 267.8027 305.1144  1.00271561 50945
THAICOM 4               
1 28786U 05028A   26065.52249772 -.00000366  00000+0  00000+0 0  9997
2 28786   0.0297 257.2904 0002064 108.4566 106.0748  1.00270869 51221
ANIK F1R                
1 28868U 05036A   26065.56032899 -.00000078  00000+0  00000+0 0  9991
2 28868   4.0502  77.8643 0003088 305.7259 235.1157  1.00272466 45427
SYRACUSE 3A             
1 28885U 05041B   26065.59074913  .00000128  00000+0  00000+0 0  9997
2 28885   4.3806  77.1116 0003637 272.6099  73.4458  1.00272539 74710
INMARSAT 4-F2           
1 28899U 05044A   26065.32477566 -.00000264  00000+0  00000+0 0  9999
2 28899   4.9598  43.8038 0002699 323.6854  56.9722  1.00271905 74496
METEOSAT-9 (MSG-2)      
1 28912U 05049B   26065.59066247  .00000122  00000+0  00000+0 0  9991
2 28912   9.1298  55.1603 0001599 224.1198 143.4443  1.00278557  5973
EUTELSAT 174A           
1 28924U 05052A   26065.75870987  .00000007  00000+0  00000+0 0  9992
2 28924   3.9591  77.7981 0006285 272.7712 261.0320  1.00274479 51309
ECHOSTAR 10             
1 28935U 06003A   26065.55972233 -.00000059  00000+0  00000+0 0  9994
2 28935   0.0552 292.8958 0001926  19.0771 303.5989  1.00271913 73435
SPAINSAT                
1 28945U 06007A   26064.63000687 -.00000224  00000+0  00000+0 0  9996
2 28945   0.2953  89.1367 0004227 261.7947   9.0324  1.00272267 73188
EKRAN 2 DEB             
1 29014U 77092K   26065.55356896  .00000113  00000+0  00000+0 0  9990
2 29014   4.3975 275.6574 0020278 347.1355 319.4638  1.00120507 46245
JCSAT-5A                
1 29045U 06010A   26065.78864368 -.00000331  00000+0  00000+0 0  9992
2 29045   0.8435  85.5709 0001685 318.4864 176.4201  1.00272842 72747
