[{"OBJECT_NAME":"AMC-15","OBJECT_ID":"2004-041A","EPOCH":"2026-03-06T13:27:29.865312","MEAN_MOTION":1.00272387,"ECCENTRICITY":0.00025521,"INCLINATION":0.0507,"RA_OF_ASC_NODE":300.4027,"ARG_OF_PERICENTER":30.0695,"MEAN_ANOMALY":290.6175,"EPHEMERIS_TYPE":0,"CLASSIFICATION_TYPE":"U","NORAD_CAT_ID":28446,"ELEMENT_SET_NO":999,"REV_AT_EPOCH":7827,"BSTAR":0,"MEAN_MOTION_DOT":-9.3e-7,"MEAN_MOTION_DDOT":0},{"OBJECT_NAME":"SL-12 R/B(2)","OBJECT_ID":"2004-043D","EPOCH":"2026-03-06T02:54:38.623968","MEAN_MOTION":1.00162986,"ECCENTRICITY":0.00070103,"INCLINATION":13.117,"RA_OF_ASC_NODE":17.2184,"ARG_OF_PERICENTER":167.8546,"MEAN_ANOMALY":185.142,"EPHEMERIS_TYPE":0,"CLASSIFICATION_TYPE":"U","NORAD_CAT_ID":28466,"ELEMENT_SET_NO":999,"REV_AT_EPOCH":7807,"BSTAR":0,"MEAN_MOTION_DOT":-1.32e-6,"MEAN_MOTION_DDOT":0},{"OBJECT_NAME":"NSS-10","OBJECT_ID":"2005-003A","EPOCH":"2026-03-06T18:54:50.976864","MEAN_MOTION":1.00272071,"ECCENTRICITY":0.0003238,"INCLINATION":6.1934,"RA_OF_ASC_NODE":71.6906,"ARG_OF_PERICENTER":269.4572,"MEAN_ANOMALY":69.6207,"EPHEMERIS_TYPE":0,"CLASSIFICATION_TYPE":"U","NORAD_CAT_ID":28526,"ELEMENT_SET_NO":999,"REV_AT_EPOCH":5212,"BSTAR":0,"MEAN_MOTION_DOT":-2.54e-6,"MEAN_MOTION_DDOT":0},{"OBJECT_NAME":"INMARSAT 4-F1","OBJECT_ID":"2005-009A","EPOCH":"2026-03-06T18:13:39.924768","MEAN_MOTION":1.00272777,"ECCENTRICITY":0.0002864,"INCLINATION":5.0305,"RA_OF_ASC_NODE":42.7326,"ARG_OF_PERICENTER":330.9087,"MEAN_ANOMALY":242.3633,"EPHEMERIS_TYPE":0,"CLASSIFICATION_TYPE":"U","NORAD_CAT_ID":28628,"ELEMENT_SET_NO":999,"REV_AT_EPOCH":7664,"BSTAR":0,"MEAN_MOTION_DOT":3.1e-7,"MEAN_MOTION_DDOT":0},{"OBJECT_NAME":"SL-12 R/B(2)","OBJECT_ID":"2005-010F","EPOCH":"2026-03-06T13:04:26.290272","MEAN_MOTION":1.00213537,"ECCENTRICITY":0.00233107,"INCLINATION":13.0163,"RA_OF_ASC_NODE":19.1663,"ARG_OF_PERICENTER":266.557,"MEAN_ANOMALY":137.6257,"EPHEMERIS_TYPE":0,"CLASSIFICATION_TYPE":"U","NORAD_CAT_ID":28634,"ELEMENT_SET_NO":999,"REV_AT_EPOCH":7667,"BSTAR":0,"MEAN_MOTION_DOT":1.1e-7,"MEAN_MOTION_DDOT":0},{"OBJECT_NAME":"DIRECTV 8","OBJECT_ID":"2005-019A","EPOCH":"2026-03-06T13:23:30.247872","MEAN_MOTION":1.00272136,"ECCENTRICITY":0.00033199,"INCLINATION":0.0161,"RA_OF_ASC_NODE":113.6976,"ARG_OF_PERICENTER":247.1626,"MEAN_ANOMALY":245.228,"EPHEMERIS_TYPE":0,"CLASSIFICATION_TYPE":"U","NORAD_CAT_ID":28659,"ELEMENT_SET_NO":999,"REV_AT_EPOCH":7604,"BSTAR":0,"MEAN_MOTION_DOT":-3.0e-8,"MEAN_MOTION_DDOT":0},{"OBJECT_NAME":"GALAXY 28 (G-28)","OBJECT_ID":"2005-022A","EPOCH":"2026-03-06T10:24:18.098784","MEAN_MOTION":1.00271561,"ECCENTRICITY":0.00022936,"INCLINATION":3.0333,"RA_OF_ASC_NODE":80.2221,"ARG_OF_PERICENTER":267.8027,"MEAN_ANOMALY":305.1144,"EPHEMERIS_TYPE":0,"CLASSIFICATION_TYPE":"U","NORAD_CAT_ID":28702,"ELEMENT_SET_NO":999,"REV_AT_EPOCH":5094,"BSTAR":0,"MEAN_MOTION_DOT":-2.04e-6,"MEAN_MOTION_DDOT":0},{"OBJECT_NAME":"THAICOM 4","OBJECT_ID":"2005-028A","EPOCH":"2026-03-06T12:32:23.803008","MEAN_MOTION":1.00270869,"ECCENTRICITY":0.00020648,"INCLINATION":0.0297,"RA_OF_ASC_NODE":257.2904,"ARG_OF_PERICENTER":108.4566,"MEAN_ANOMALY":106.0748,"EPHEMERIS_TYPE":0,"CLASSIFICATION_TYPE":"U","NORAD_CAT_ID":28786,"ELEMENT_SET_NO":999,"REV_AT_EPOCH":5122,"BSTAR":0,"MEAN_MOTION_DOT":-3.66e-6,"MEAN_MOTION_DDOT":0},{"OBJECT_NAME":"ANIK F1R","OBJECT_ID":"2005-036A","EPOCH":"2026-03-06T13:26:52.424736","MEAN_MOTION":1.00272466,"ECCENTRICITY":0.00030888,"INCLINATION":4.0502,"RA_OF_ASC_NODE":77.8643,"ARG_OF_PERICENTER":305.7259,"MEAN_ANOMALY":235.1157,"EPHEMERIS_TYPE":0,"CLASSIFICATION_TYPE":"U","NORAD_CAT_ID":28868,"ELEMENT_SET_NO":999,"REV_AT_EPOCH":4542,"BSTAR":0,"MEAN_MOTION_DOT":-7.8e-7,"MEAN_MOTION_DDOT":0},{"OBJECT_NAME":"SYRACUSE 3A","OBJECT_ID":"2005-041B","EPOCH":"2026-03-06T14:10:40.724832","MEAN_MOTION":1.00272539,"ECCENTRICITY":0.00036376,"INCLINATION":4.3806,"RA_OF_ASC_NODE":77.1116,"ARG_OF_PERICENTER":272.6099,"MEAN_ANOMALY":73.4458,"EPHEMERIS_TYPE":0,"CLASSIFICATION_TYPE":"U","NORAD_CAT_ID":28885,"ELEMENT_SET_NO":999,"REV_AT_EPOCH":7471,"BSTAR":0,"MEAN_MOTION_DOT":1.28e-6,"MEAN_MOTION_DDOT":0},{"OBJECT_NAME":"INMARSAT 4-F2","OBJECT_ID":"2005-044A","EPOCH":"2026-03-06T07:47:40.617024","MEAN_MOTION":1.00271905,"ECCENTRICITY":0.00026991,"INCLINATION":4.9598,"RA_OF_ASC_NODE":43.8038,"ARG_OF_PERICENTER":323.6854,"MEAN_ANOMALY":56.9722,"EPHEMERIS_TYPE":0,"CLASSIFICATION_TYPE":"U","NORAD_CAT_ID":28899,"ELEMENT_SET_NO":999,"REV_AT_EPOCH":7449,"BSTAR":0,"MEAN_MOTION_DOT":-2.64e-6,"MEAN_MOTION_DDOT":0},{"OBJECT_NAME":"METEOSAT-9 (MSG-2)","OBJECT_ID":"2005-049B","EPOCH":"2026-03-06T14:10:33.237408","MEAN_MOTION":1.00278557,"ECCENTRICITY":0.00015998,"INCLINATION":9.1298,"RA_OF_ASC_NODE":55.1603,"ARG_OF_PERICENTER":224.1198,"MEAN_ANOMALY":143.4443,"EPHEMERIS_TYPE":0,"CLASSIFICATION_TYPE":"U","NORAD_CAT_ID":28912,"ELEMENT_SET_NO":999,"REV_AT_EPOCH":597,"BSTAR":0,"MEAN_MOTION_DOT":1.22e-6,"MEAN_MOTION_DDOT":0},{"OBJECT_NAME":"EUTELSAT 174A","OBJECT_ID":"2005-052A","EPOCH":"2026-03-06T18:12:32.532768","MEAN_MOTION":1.00274479,"ECCENTRICITY":0.0006285,"INCLINATION":3.9591,"RA_OF_ASC_NODE":77.7981,"ARG_OF_PERICENTER":272.7712,"MEAN_ANOMALY":261.032,"EPHEMERIS_TYPE":0,"CLASSIFICATION_TYPE":"U","NORAD_CAT_ID":28924,"ELEMENT_SET_NO":999,"REV_AT_EPOCH":5130,"BSTAR":0,"MEAN_MOTION_DOT":7.0e-8,"MEAN_MOTION_DDOT":0},{"OBJECT_NAME":"ECHOSTAR 10","OBJECT_ID":"2006-003A","EPOCH":"2026-03-06T13:26:00.009312","MEAN_MOTION":1.00271913,"ECCENTRICITY":0.00019266,"INCLINATION":0.0552,"RA_OF_ASC_NODE":292.8958,"ARG_OF_PERICENTER":19.0771,"MEAN_ANOMALY":303.5989,"EPHEMERIS_TYPE":0,"CLASSIFICATION_TYPE":"U","NORAD_CAT_ID":28935,"ELEMENT_SET_NO":999,"REV_AT_EPOCH":7343,"BSTAR":0,"MEAN_MOTION_DOT":-5.9e-7,"MEAN_MOTION_DDOT":0},{"OBJECT_NAME":"SPAINSAT","OBJECT_ID":"2006-007A","EPOCH":"2026-03-05T15:07:12.593568","MEAN_MOTION":1.00272267,"ECCENTRICITY":0.0004227,"INCLINATION":0.2953,"RA_OF_ASC_NODE":89.1367,"ARG_OF_PERICENTER":261.7947,"MEAN_ANOMALY":9.0324,"EPHEMERIS_TYPE":0,"CLASSIFICATION_TYPE":"U","NORAD_CAT_ID":28945,"ELEMENT_SET_NO":999,"REV_AT_EPOCH":7318,"BSTAR":0,"MEAN_MOTION_DOT":-2.24e-6,"MEAN_MOTION_DDOT":0},{"OBJECT_NAME":"EKRAN 2 DEB","OBJECT_ID":"1977-092K","EPOCH":"2026-03-06T13:17:08.358144","MEAN_MOTION":1.00120507,"ECCENTRICITY":0.00202786,"INCLINATION":4.3975,"RA_OF_ASC_NODE":275.6574,"ARG_OF_PERICENTER":347.1355,"MEAN_ANOMALY":319.4638,"EPHEMERIS_TYPE":0,"CLASSIFICATION_TYPE":"U","NORAD_CAT_ID":29014,"ELEMENT_SET_NO":999,"REV_AT_EPOCH":4624,"BSTAR":0,"MEAN_MOTION_DOT":1.13e-6,"MEAN_MOTION_DDOT":0},{"OBJECT_NAME":"JCSAT-5A","OBJECT_ID":"2006-010A","EPOCH":"2026-03-06T18:55:38.813952","MEAN_MOTION":1.00272842,"ECCENTRICITY":0.0001685,"INCLINATION":0.8435,"RA_OF_ASC_NODE":85.5709,"ARG_OF_PERICENTER":318.4864,"MEAN_ANOMALY":176.4201,"EPHEMERIS_TYPE":0,"CLASSIFICATION_TYPE":"U","NORAD_CAT_ID":29045,"ELEMENT_SET_NO":999,"REV_AT_EPOCH":7274,"BSTAR":0,"MEAN_MOTION_DOT":-3.31e-6,"MEAN_MOTION_DDOT":0}]
